CIC_OEM_VERS = 2.0
CREATION_DATE = 2025-01-31T16:21:49.566240
ORIGINATOR = ISAE-SUPAERO


META_START
OBJECT_NAME = BLUE1
OBJECT_ID = BLUE1
CENTER_NAME = Earth
REF_FRAME = EME2000
TIME_SYSTEM = UTC
START_TIME = 2025-01-31T00:00:00.000
USEABLE_START_TIME = 2025-01-31T00:00:00.000
USEABLE_STOP_TIME = 2025-01-31T23:55:00.000
STOP_TIME = 2025-01-31T23:55:00.000
INTERPOLATION = lagrange
INTERPOLATION_DEGREE = 5
META_STOP



60706 0.0 -6389.996700000001 2182.3145 -1556.5363 1.9407337 0.45854801 -7.341951600000001
60706 420.0 -4939.993 2141.6818 -4370.487099999999 4.8399092 -0.64777111 -5.8217977
60706 840.0 -2467.869 1658.0553 -6278.6471 6.7232753 -1.6135524 -3.1086750000000003
60706 1260.0 511.61690000000004 833.9385500000001 -6895.2108 7.2171572 -2.2416177 0.21911421000000003
60706 1680.0 3387.7186 -160.14428 -6104.4902 6.2434013 -2.4102615999999997 3.4774219
60706 2100.0 5579.2659 -1122.0231 -4075.7689 4.0150382 -2.0917462 6.015107
60706 2520.0 6647.5014 -1858.0618000000002 -1223.8519 0.98588433 -1.3535059 7.3319802
60706 2940.0 6380.1016 -2220.8008 1874.7464 -2.2370928 -0.34443718 7.170573500000001
60706 3360.0 4831.6107999999995 -2137.6203 4595.892400000001 -5.0111937 0.73396894 5.5649596
60706 3780.0 2311.975 -1624.7386999999999 6390.481900000001 -6.782680999999999 1.6670863 2.8321742
60706 4200.0 -673.67665 -784.12863 6891.8792 -7.190418 2.2676075 -0.48962294000000006
60706 4620.0 -3521.6473 215.53377 5989.4800000000005 -6.1342829000000005 2.4102671 -3.7377075
60706 5040.0 -5647.0324 1170.7188 3856.7195 -3.8059223 2.0580309000000003 -6.243484400000001
60706 5460.0 -6604.923900000001 1883.7361 925.42545 -0.67227048 1.2767194 -7.4692451
60706 5880.0 -6190.9254 2205.4611 -2198.335 2.6086167999999996 0.22826324 -7.141980800000001
60706 6300.0 -4491.3928 2069.2802 -4864.7471 5.3391205 -0.86427728 -5.3324403
60706 6720.0 -1863.7787 1505.6793 -6524.3859 6.9521232 -1.7713116 -2.435938
60706 7140.0 1146.5278 633.41053 -6844.1988 7.133509200000001 -2.3094724 0.9348278400000001
60706 7560.0 3924.5595000000003 -367.80083 -5769.3459 5.868653800000001 -2.3760051 4.0918217
60706 7980.0 5910.3155 -1294.8908999999999 -3525.7566 3.4267127 -1.9632772 6.4068004
60706 8400.0 6706.8115 -1961.4848000000002 -570.5046600000001 0.30223814 -1.1569485 7.4241985
60706 8820.0 6156.1189 -2234.1055 2499.7325 -2.8796147999999997 -0.11913391000000001 6.9456625999999995
60706 9240.0 4369.2300000000005 -2058.1035 5066.613 -5.4846463000000005 0.94320296 5.0675664
60706 9660.0 1703.7007 -1468.1633000000002 6611.4265000000005 -6.9918645 1.8185352000000001 2.1600358
60706 10080.0 -1305.4368000000002 -581.7523299999999 6816.7192000000005 -7.0904415 2.3303447 -1.2035818
60706 10500.0 -4048.0631000000003 422.79964 5631.081700000001 -5.740273500000001 2.370049 -4.3487425
60706 10920.0 -5958.6050000000005 1340.2137 3286.5463 -3.1944456 1.9213241 -6.6224110000000005
60706 11340.0 -6635.5495 1980.0535 260.55862 0.030050228000000002 1.0711385 -7.532521300000001
60706 11760.0 -5933.6724 2208.4277 -2819.5773 3.2522338 -0.0025849389 -6.8748569
60706 12180.0 -4000.536 1978.6092 -5313.562400000001 5.7883338 -1.0713514 -4.793877800000001
60706 12600.0 -1241.8704 1340.7021000000002 -6709.592000000001 7.1166671 -1.9120119 -1.7416899000000001
60706 13020.0 1771.5954 428.41152000000005 -6730.1418 6.9846921 -2.3563589 1.6410048
60706 13440.0 4426.2666 -571.03421 -5381.2963 5.440589200000001 -2.3210573 4.668377400000001
60706 13860.0 6188.1697 -1455.4042 -2943.4058999999997 2.8071031 -1.8183444 6.7400443999999995
60706 14280.0 6705.5639 -2047.1095 88.27996300000001 -0.38462748 -0.9513652 7.448935400000001
60706 14700.0 5876.3008 -2227.7203 3102.2447 -3.496826 0.10600604 6.6575180000000005
60706 15120.0 3866.8461 -1960.9162 5491.3856 -5.9092489 1.1431501000000002 4.5234706
60706 15540.0 1079.3238000000001 -1299.451 6771.964900000001 -7.137933200000001 1.9533330000000002 1.4669419000000001
60706 15960.0 -1925.8796000000002 -375.26426000000004 6678.649 -6.9251382999999995 2.3721189 -1.9081772000000001
60706 16380.0 -4537.5455999999995 625.16248 5220.0299 -5.2918437 2.3086089000000003 -4.9208815
60706 16800.0 -6214.8514000000005 1496.6318 2685.1291 -2.5515012 1.7676341 -6.9399493
60706 17220.0 -6603.9235 2057.7649 -407.22346000000005 0.73313339 0.85675655 -7.5248372
60706 17640.0 -5620.4977 2191.2212000000004 -3414.7132 3.8655722000000003 -0.23195896 -6.543136400000001
60706 18060.0 -3471.8425 1870.4993000000002 -5713.014 6.183451 -1.267182 -4.2111347
60706 18480.0 -607.7704200000001 1164.6049 -6832.7654 7.2154297 -2.0344372 -1.0323026
60706 18900.0 2381.1719 220.76425 -6554.2617 6.7720399 -2.3818726000000003 2.3312401
60706 19320.0 4888.291700000001 -768.02838 -4944.063700000001 4.9630398 -2.2458607 5.2017575
60706 19740.0 6410.313700000001 -1602.1198000000002 -2334.27 2.1619124000000003 -1.6582713000000002 7.0116276
60706 20160.0 6643.8305 -2114.1863 746.1880100000001 -1.0683042 -0.7386613 7.4058349
60706 20580.0 5543.3472 -2201.7395 3676.451 -4.0828213 0.32894855 6.308763700000001
60706 21000.0 3329.3386 -1846.9643 5866.043900000001 -6.2807200000000005 1.3320215000000002 3.9378713
60706 21420.0 444.99063 -1120.1634 6870.4791 -7.2192305 2.0701952 0.75961119
60706 21840.0 -2528.777 -166.60739 6478.991400000001 -6.6958039 2.3924343 -2.5963177
60706 22260.0 -4985.0471 820.66641 4760.501200000001 -4.793350800000001 2.2264364000000003 -5.4479246
60706 22680.0 -6413.1051 1638.449 2058.7802 -1.8839348 1.598532 -7.1923663
60706 23100.0 -6510.5007000000005 2116.197 -1070.7944 1.4293094000000002 0.63595053 -7.446157
60706 23520.0 -5254.9148 2154.1994 -3977.3883 4.442018200000001 -0.45745328 -6.1504496
60706 23940.0 -2911.1086 1746.2126 -6058.9025 6.5204070000000005 -1.4499450999999999 -3.5905594
60706 24360.0 31.685362 979.2477600000001 -6892.6862 7.247683200000001 -2.1376347 -0.31527324
60706 24780.0 2968.8098999999997 12.522071 -6318.4169 6.4980456 -2.3860461 2.9986018
60706 25200.0 5305.8004 -956.95119 -4462.072099999999 4.441045600000001 -2.1514213 5.686879299999999
60706 25620.0 6574.3686 -1733.7891000000002 -1704.3452 1.4975825 -1.4847686000000002 7.219240300000001
60706 26040.0 6522.0149 -2162.2673999999997 1396.8863000000001 -1.7421789 -0.5208853 7.295603900000001
60706 26460.0 5160.258 -2156.6007999999997 4216.9225 -4.6320521 0.54755893 5.9029239
60706 26880.0 2761.6205 -1717.5462 6187.1022 -6.5956192 1.5079367 3.3163266
60706 27300.0 -193.45132999999998 -932.2486600000001 6906.077 -7.2347917 2.1679673 0.044707915
60706 27720.0 -3108.4661 41.988566 6219.7303 -6.4043258 2.3911515 -3.2611565000000002
60706 28140.0 -5386.3213 1007.2934 4257.1537 -4.2495231 2.1246878000000002 -5.924341
60706 28560.0 -6551.5345 1764.3638999999998 1413.9203 -1.1982927 1.4161677 -7.3770387
60706 28980.0 -6356.3337 2155.0175 -1723.3643000000002 2.1116088 0.41110441 -7.2973911
60706 29400.0 -4840.6981 2098.0286 -4501.9542 4.9759101 -0.6767671900000001 -5.701206
60706 29820.0 -2323.9232 1607.2697 -6347.9543 6.7963107 -1.6179504 -2.93871
60706 30240.0 670.34734 786.66648 -6889.009 7.2136313 -2.2208845000000004 0.40235881
60706 30660.0 3529.0334 -194.19165 -6025.089900000001 6.1656452 -2.3691859 3.636849
60706 31080.0 5675.0225 -1136.0083 -3940.0593 3.8796509 -2.0389598 6.1194017
60706 31500.0 6678.9541 -1849.2789 -1059.6608999999999 0.82027726 -1.2997263000000001 7.3611514
60706 31920.0 6341.3769 -2191.1229 2034.2368000000001 -2.4000876 -0.30038811 7.1194846
60706 32340.0 4730.6320000000005 -2093.0469 4718.6073 -5.1397067 0.75968007 5.443814000000001
60706 32760.0 2168.8966 -1574.1712 6451.514 -6.851197 1.6694474000000001 2.664428
60706 33180.0 -830.16539 -737.64637 6878.2806 -7.1844342 2.2460727 -0.67131107
60706 33600.0 -3659.6229 248.55926000000002 5903.062 -6.0533173 2.3687456000000005 -3.8966646000000003
60706 34020.0 -5737.6488 1183.4623000000001 3714.3572000000004 -3.6651883 2.0046101000000003 -6.346012300000001
60706 34440.0 -6628.7733 1873.4175 756.1255600000001 -0.5008035 1.2222731000000002 -7.4924603
60706 34860.0 -6142.710599999999 2174.1152 -2359.4098 2.7739979 0.18443468999999998 -7.0803088
60706 35280.0 -4381.320900000001 2023.4902 -4984.1861 5.463029499999999 -0.88797004 -5.1996381000000005
60706 35700.0 -1715.0274 1455.121 -6578.0253 7.0093326 -1.7699648000000001 -2.2611199
60706 36120.0 1303.2395000000001 588.648 -6821.9848 7.113887 -2.2838098000000002 1.1149342999999998
60706 36540.0 4057.5852000000004 -397.61082 -5676.7722 5.7775958 -2.3317557000000004 4.241130500000001
60706 36960.0 5993.2238 -1303.7788 -3382.2423 3.2832559000000003 -1.9096279 6.4960745
60706 37380.0 6723.4044 -1947.7616 -405.34163 0.13525014999999999 -1.1047689 7.4364051
60706 37800.0 6103.388400000001 -2200.6251 2653.2364 -3.037254 -0.078798032 6.8789083
60706 38220.0 4257.754400000001 -2011.5985 5177.5358 -5.6020504 0.9638717400000001 4.9348731
60706 38640.0 1555.6708 -1417.8886000000002 6657.0792 -7.0454805 1.8155126000000001 1.9870342
60706 39060.0 -1460.2686 -537.7280400000001 6787.0797 -7.0683679 2.304049 -1.3830354
60706 39480.0 -4177.9355000000005 451.678 5531.1613 -5.6452502 2.3253820999999997 -4.4979883
60706 39900.0 -6036.1999000000005 1347.9461000000001 3136.0732000000003 -3.0448193000000003 1.8670244 -6.7093745
60706 40320.0 -6644.1565 1964.9105 90.37158000000001 0.20295647 1.0184741 -7.5375608000000005
60706 40740.0 -5871.2937 2173.5202999999997 -2974.0816 3.4111296 -0.042292105 -6.7965537000000005
60706 41160.0 -3880.4457 1931.3279 -5420.4573 5.8994085 -1.0895025 -4.649796500000001
60706 41580.0 -1089.3066000000001 1291.0561 -6747.508400000001 7.157733500000001 -1.9049745 -1.5632678000000002
60706 42000.0 1925.2711000000002 386.76131 -6692.3858 6.949148500000001 -2.3260870000000002 1.8167475
60706 42420.0 4550.1608 -596.18238 -5276.505700000001 5.3368932000000004 -2.2741607 4.8065156
60706 42840.0 6257.7558 -1459.0358 -2793.3983 2.6566302 -1.7645629 6.8137099
60706 43260.0 6707.2983 -2028.6085 252.99066000000002 -0.55183284 -0.90153152 7.4442296
